NORAD_CAT_ID,OBJECT_NAME,OBJECT_TYPE,EPOCH,MEAN_MOTION,ECCENTRICITY,INCLINATION,RA_OF_ASC_NODE,ARG_OF_PERICENTER,MEAN_ANOMALY,BSTAR,MEAN_MOTION_DOT,MEAN_MOTION_DDOT,TLE_LINE0,TLE_LINE1,TLE_LINE2,SEMIMAJOR_AXIS,PERIOD,APOGEE,PERIGEE,DECAYED
48148,STARLINK-2491,PAYLOAD,2022-09-10 19:51:49,15.06405184,0.0001672,53.0533,139.1808,75.6015,284.5159,1.4648e-05,-6.3e-07,0.0,0 STARLINK-2491,1 48148U 21027BJ  22253.82765292 -.00000063  00000-0  14648-4 0  9999,2 48148  53.0533 139.1808 0001672  75.6015 284.5159 15.06405184 80103,6925.333000000001,95.592,548.356,546.04,0.0
48148,STARLINK-2491,PAYLOAD,2022-09-11 02:13:58,15.06403274,0.0001485,53.0535,137.9888,82.1014,278.0143,-8.4085e-05,-1.534e-05,0.0,0 STARLINK-2491,1 48148U 21027BJ  22254.09303944 -.00001534  00000-0 -84085-4 0  9998,2 48148  53.0535 137.9888 0001485  82.1014 278.0143 15.06403274 80146,6925.339,95.592,548.232,546.175,0.0
48148,STARLINK-2491,PAYLOAD,2022-09-11 19:44:54,15.06408035,0.0001384,53.0533,134.713,78.5115,281.6029,0.00017248,2.289e-05,0.0,0 STARLINK-2491,1 48148U 21027BJ  22254.82285058  .00002289  00000-0  17248-3 0  9996,2 48148  53.0533 134.7130 0001384  78.5115 281.6029 15.06408035 79868,6925.324000000001,95.592,548.1469999999998,546.23,0.0
48148,STARLINK-2491,PAYLOAD,2022-09-11 21:20:26,15.06404225,0.0001283,53.0536,134.4149,83.8684,276.2451,9.865e-05,1.188e-05,0.0,0 STARLINK-2491,1 48148U 21027BJ  22254.88919893  .00001188  00000-0  98650-4 0  9997,2 48148  53.0536 134.4149 0001283  83.8684 276.2451 15.06404225 80268,6925.3359999999975,95.592,548.089,546.312,0.0
48148,STARLINK-2491,PAYLOAD,2022-09-12 02:07:04,15.06397003,0.00013969999999999998,53.0537,133.5209,75.0997,285.0147,-3.1039e-05,-7.44e-06,0.0,0 STARLINK-2491,1 48148U 21027BJ  22255.08824328 -.00000744  00000-0 -31039-4 0  9995,2 48148  53.0537 133.5209 0001397  75.0997 285.0147 15.06397003 80290,6925.358,95.592,548.19,546.255,0.0
48148,STARLINK-2491,PAYLOAD,2022-09-12 16:26:55,15.06398323,0.0001243,53.053,130.8412,70.6841,289.4282,6.4342e-05,6.77e-06,0.0,0 STARLINK-2491,1 48148U 21027BJ  22255.68536375  .00000677  00000-0  64342-4 0  9999,2 48148  53.0530 130.8412 0001243  70.6841 289.4282 15.06398323 80382,6925.354,95.592,548.08,546.3580000000002,0.0
48148,STARLINK-2491,PAYLOAD,2022-09-13 02:00:09,15.06400037,0.00012570000000000002,53.053,129.0539,72.658,287.4547,7.7394e-05,8.72e-06,0.0,0 STARLINK-2491,1 48148U 21027BJ  22256.08344373  .00000872  00000-0  77394-4 0  9997,2 48148  53.0530 129.0539 0001257  72.6580 287.4547 15.06400037 80444,6925.348000000001,95.592,548.0840000000002,546.3430000000002,0.0
48148,STARLINK-2491,PAYLOAD,2022-09-13 14:44:28,15.06393536,0.00012819999999999994,53.0531,126.6706,73.2679,286.845,-3.6057e-05,-8.18e-06,0.0,0 STARLINK-2491,1 48148U 21027BJ  22256.61422285 -.00000818  00000-0 -36057-4 0  9998,2 48148  53.0531 126.6706 0001282  73.2679 286.8450 15.06393536 80135,6925.368,95.593,548.121,546.346,0.0
48148,STARLINK-2491,PAYLOAD,2022-09-13 16:20:01,15.06398162,0.0001218,53.0532,126.3726,71.6313,288.4808,-0.00020764,-3.373e-05,0.0,0 STARLINK-2491,1 48148U 21027BJ  22256.68056776 -.00003373  00000-0 -20764-3 0  9999,2 48148  53.0532 126.3726 0001218  71.6313 288.4808 15.06398162 80530,6925.354,95.592,548.063,546.376,0.0
48148,STARLINK-2491,PAYLOAD,2022-09-14 08:15:25,15.06388478,0.000124,53.054,123.3942,74.1504,285.9621,3.908e-05,3.01e-06,0.0,0 STARLINK-2491,1 48148U 21027BJ  22257.34404778  .00000301  00000-0  39080-4 0  9990,2 48148  53.0540 123.3942 0001240  74.1504 285.9621 15.06388478 80636,6925.384,95.593,548.1080000000002,546.39,0.0
48148,STARLINK-2491,PAYLOAD,2022-09-14 16:13:07,15.06392161,0.000126,53.0529,121.9044,73.6188,286.4939,5.0513e-05,4.71e-06,0.0,0 STARLINK-2491,1 48148U 21027BJ  22257.67578048  .00000471  00000-0  50513-4 0  9990,2 48148  53.0529 121.9044 0001260  73.6188 286.4939 15.06392161 80681,6925.373000000001,95.593,548.11,546.365,0.0
48148,STARLINK-2491,PAYLOAD,2022-09-15 00:10:48,15.06397914,0.00013619999999999998,53.0532,120.4152,74.5517,285.5623,0.00010043,1.215e-05,0.0,0 STARLINK-2491,1 48148U 21027BJ  22258.00751098  .00001215  00000-0  10043-3 0  9996,2 48148  53.0532 120.4152 0001362  74.5517 285.5623 15.06397914 80342,6925.355,95.592,548.163,546.2769999999998,0.0
48148,STARLINK-2491,PAYLOAD,2022-09-15 08:08:30,15.06401935,0.00013730000000000006,53.0536,118.9259,76.0019,284.1122,0.00019358,2.603e-05,0.0,0 STARLINK-2491,1 48148U 21027BJ  22258.33924138  .00002603  00000-0  19358-3 0  9999,2 48148  53.0536 118.9259 0001373  76.0019 284.1122 15.06401935 80788,6925.343000000003,95.592,548.158,546.257,0.0
48148,STARLINK-2491,PAYLOAD,2022-09-15 20:52:49,15.06400778,0.0001402,53.0536,116.5432,74.2527,285.8616,0.0001364,1.751e-05,0.0,0 STARLINK-2491,1 48148U 21027BJ  22258.87001938  .00001751  00000-0  13640-3 0  9993,2 48148  53.0536 116.5432 0001402  74.2527 285.8616 15.06400778 80861,6925.346,95.592,548.182,546.24,0.0
48148,STARLINK-2491,PAYLOAD,2022-09-16 08:01:36,15.06406148,0.0001335,53.054,114.4585,75.1908,284.9228,0.00030191,4.219e-05,0.0,0 STARLINK-2491,1 48148U 21027BJ  22259.33444486  .00004219  00000-0  30191-3 0  9996,2 48148  53.0540 114.4585 0001335  75.1908 284.9228 15.06406148 80934,6925.33,95.592,548.119,546.27,0.0
48148,STARLINK-2491,PAYLOAD,2022-09-16 17:34:50,15.06395438,0.0001465,53.0527,112.6707,79.195,280.9204,2.7204e-05,1.24e-06,0.0,0 STARLINK-2491,1 48148U 21027BJ  22259.73253143  .00000124  00000-0  27204-4 0  9991,2 48148  53.0527 112.6707 0001465  79.1950 280.9204 15.06395438 80603,6925.363,95.592,548.242,546.2130000000002,0.0
48148,STARLINK-2491,PAYLOAD,2022-09-16 20:45:55,15.0638792,0.0001353,53.0534,112.0757,75.74600000000002,284.3679,-0.00012809,-2.188e-05,0.0,0 STARLINK-2491,1 48148U 21027BJ  22259.86522938 -.00002188  00000-0 -12809-3 0  9994,2 48148  53.0534 112.0757 0001353  75.7460 284.3679 15.06387920 81011,6925.386,95.593,548.188,546.314,0.0
48148,STARLINK-2491,PAYLOAD,2022-09-17 01:32:32,15.06389003,0.00013859999999999998,53.0535,111.1823,74.077,286.0372,-0.00010270000000000004,-1.8100000000000006e-05,0.0,0 STARLINK-2491,1 48148U 21027BJ  22260.06427012 -.00001810  00000-0 -10270-3 0  9996,2 48148  53.0535 111.1823 0001386  74.0770 286.0372 15.06389003 80650,6925.382,95.593,548.207,546.2869999999998,0.0
48148,STARLINK-2491,PAYLOAD,2022-09-17 20:39:01,15.06396088,0.0001364,53.0533,107.6088,68.1703,291.9431,6.6865e-05,7.15e-06,0.0,0 STARLINK-2491,1 48148U 21027BJ  22260.86043214  .00000715  00000-0  66865-4 0  9995,2 48148  53.0533 107.6088 0001364  68.1703 291.9431 15.06396088 81166,6925.361,95.592,548.17,546.281,0.0
48148,STARLINK-2491,PAYLOAD,2022-09-17 23:50:05,15.06397903,0.0001306,53.0532,107.0122,73.3431,286.7702,4.9105e-05,4.5e-06,0.0,0 STARLINK-2491,1 48148U 21027BJ  22260.99312491  .00000450  00000-0  49105-4 0  9999,2 48148  53.0532 107.0122 0001306  73.3431 286.7702 15.06397903 80798,6925.355,95.592,548.124,546.316,0.0
48148,STARLINK-2491,PAYLOAD,2022-09-18 04:36:43,15.0639954,0.0001349,53.0535,106.1189,75.5756,284.5383,0.00011114,1.374e-05,0.0,0 STARLINK-2491,1 48148U 21027BJ  22261.19216472  .00001374  00000-0  11114-3 0  9998,2 48148  53.0535 106.1189 0001349  75.5756 284.5383 15.06399540 81213,6925.35,95.592,548.149,546.281,0.0
48148,STARLINK-2491,PAYLOAD,2022-09-18 20:32:07,15.06390214,0.0001343,53.0542,103.1401,75.07600000000002,285.0378,0.00010224,1.241e-05,0.0,0 STARLINK-2491,1 48148U 21027BJ  22261.85563961  .00001241  00000-0  10224-3 0  9993,2 48148  53.0542 103.1401 0001343  75.0760 285.0378 15.06390214 80925,6925.379,95.593,548.174,546.313,0.0
48148,STARLINK-2491,PAYLOAD,2022-09-19 01:18:44,15.06388629,0.00013700000000000002,53.0542,102.2467,75.5434,284.5707,0.00017925,2.389e-05,0.0,0 STARLINK-2491,1 48148U 21027BJ  22262.05468144  .00002389  00000-0  17925-3 0  9992,2 48148  53.0542 102.2467 0001370  75.5434 284.5707 15.06388629 81344,6925.3830000000025,95.593,548.197,546.3,0.0
48148,STARLINK-2491,PAYLOAD,2022-09-19 18:49:40,15.0640128,0.00013969999999999998,53.0542,98.9703,76.185,283.9294,0.00015239,1.989e-05,0.0,0 STARLINK-2491,1 48148U 21027BJ  22262.78449144  .00001989  00000-0  15239-3 0  9992,2 48148  53.0542  98.9703 0001397  76.1850 283.9294 15.06401280 81068,6925.345,95.592,548.177,546.242,0.0
48148,STARLINK-2491,PAYLOAD,2022-09-19 20:25:13,15.06393616,0.00014690000000000002,53.0542,98.6723,76.5418,283.5735,7.4099e-05,8.22e-06,0.0,0 STARLINK-2491,1 48148U 21027BJ  22262.85084558  .00000822  00000-0  74099-4 0  9999,2 48148  53.0542  98.6723 0001469  76.5418 283.5735 15.06393616 81464,6925.368,95.593,548.25,546.216,0.0
48148,STARLINK-2491,PAYLOAD,2022-09-19 23:36:18,15.06388369,0.0001471,53.0542,98.0768,76.5364,283.5789,2.7662e-05,1.3e-06,0.0,0 STARLINK-2491,1 48148U 21027BJ  22262.98354385  .00000130  00000-0  27662-4 0  9997,2 48148  53.0542  98.0768 0001471  76.5364 283.5789 15.06388369 81097,6925.384,95.593,548.268,546.23,0.0
48148,STARLINK-2491,PAYLOAD,2022-09-20 05:58:27,15.06391199,0.0001482,53.0543,96.8853,76.2911,283.8243,2.775e-05,1.32e-06,0.0,0 STARLINK-2491,1 48148U 21027BJ  22263.24893074  .00000132  00000-0  27750-4 0  9990,2 48148  53.0543  96.8853 0001482  76.2911 283.8243 15.06391199 81527,6925.376,95.593,548.2669999999998,546.214,0.0
48148,STARLINK-2491,PAYLOAD,2022-09-20 23:29:23,15.063954,0.000155,53.0535,93.6093,76.6791,283.4371,0.00011094,1.371e-05,0.0,0 STARLINK-2491,1 48148U 21027BJ  22263.97874300  .00001371  00000-0  11094-3 0  9990,2 48148  53.0535  93.6093 0001550  76.6791 283.4371 15.06395400 81241,6925.363,95.592,548.3009999999998,546.154,0.0
48148,STARLINK-2491,PAYLOAD,2022-09-21 15:24:46,15.06404946,0.0001486,53.0536,90.6305,73.1337,286.9815,0.00011548,1.439e-05,0.0,0 STARLINK-2491,1 48148U 21027BJ  22264.64220775  .00001439  00000-0  11548-3 0  9995,2 48148  53.0536  90.6305 0001486  73.1337 286.9815 15.06404946 81349,6925.333000000001,95.592,548.2280000000002,546.169,0.0
